HAWK-6A                 
1 55327U 23011D   26066.44140672  .00009545  00000+0  41878-3 0  9990
2 55327  40.4983 223.5468 0002511 348.9097  11.1656 15.21870733172345
HAWK-7A                 
1 56191U 23054P   26066.65659952  .00009316  00000+0  36297-3 0  9991
2 56191  97.2829 316.5772 0004410  55.4611 304.7044 15.26171000161534
HAWK-7B                 
1 56193U 23054R   26066.65652349  .00009538  00000+0  37161-3 0  9993
2 56193  97.2864 314.8023 0003789  65.4747 294.6886 15.26170424161534
HAWK-7C                 
1 56200U 23054Y   26066.65640614  .00009447  00000+0  36806-3 0  9998
2 56200  97.2839 315.6042 0003794  56.3423 303.8177 15.26171253161538
