[{"OBJECT_NAME":"HAWK-6A","OBJECT_ID":"2023-011D","EPOCH":"2026-03-07T10:35:37.540608","MEAN_MOTION":15.21870733,"ECCENTRICITY":0.00025119,"INCLINATION":40.4983,"RA_OF_ASC_NODE":223.5468,"ARG_OF_PERICENTER":348.9097,"MEAN_ANOMALY":11.1656,"EPHEMERIS_TYPE":0,"CLASSIFICATION_TYPE":"U","NORAD_CAT_ID":55327,"ELEMENT_SET_NO":999,"REV_AT_EPOCH":17234,"BSTAR":0.00041878256,"MEAN_MOTION_DOT":9.545e-5,"MEAN_MOTION_DDOT":0},{"OBJECT_NAME":"HAWK-7A","OBJECT_ID":"2023-054P","EPOCH":"2026-03-07T15:45:30.198528","MEAN_MOTION":15.26171,"ECCENTRICITY":0.00044101,"INCLINATION":97.2829,"RA_OF_ASC_NODE":316.5772,"ARG_OF_PERICENTER":55.4611,"MEAN_ANOMALY":304.7044,"EPHEMERIS_TYPE":0,"CLASSIFICATION_TYPE":"U","NORAD_CAT_ID":56191,"ELEMENT_SET_NO":999,"REV_AT_EPOCH":16153,"BSTAR":0.00036297338,"MEAN_MOTION_DOT":9.316e-5,"MEAN_MOTION_DDOT":0},{"OBJECT_NAME":"HAWK-7B","OBJECT_ID":"2023-054R","EPOCH":"2026-03-07T15:45:23.629536","MEAN_MOTION":15.26170424,"ECCENTRICITY":0.00037896,"INCLINATION":97.2864,"RA_OF_ASC_NODE":314.8023,"ARG_OF_PERICENTER":65.4747,"MEAN_ANOMALY":294.6886,"EPHEMERIS_TYPE":0,"CLASSIFICATION_TYPE":"U","NORAD_CAT_ID":56193,"ELEMENT_SET_NO":999,"REV_AT_EPOCH":16153,"BSTAR":0.00037161142,"MEAN_MOTION_DOT":9.538e-5,"MEAN_MOTION_DDOT":0},{"OBJECT_NAME":"HAWK-7C","OBJECT_ID":"2023-054Y","EPOCH":"2026-03-07T15:45:13.490496","MEAN_MOTION":15.26171253,"ECCENTRICITY":0.00037946,"INCLINATION":97.2839,"RA_OF_ASC_NODE":315.6042,"ARG_OF_PERICENTER":56.3423,"MEAN_ANOMALY":303.8177,"EPHEMERIS_TYPE":0,"CLASSIFICATION_TYPE":"U","NORAD_CAT_ID":56200,"ELEMENT_SET_NO":999,"REV_AT_EPOCH":16153,"BSTAR":0.00036806188,"MEAN_MOTION_DOT":9.447e-5,"MEAN_MOTION_DDOT":0}]
